H1 CPF  1  DGF 2022 01 24 13  5244 larets     NONE      
H2   304206 5557    27944 2022 01 11 00 00 00 2022 01 18 00 00 00    30 1 1  0 0 0
H5  0.0650
H9
10 0 59592  82800.000000  0       4138905.060       4828596.766      -3075874.441
10 0 59592  82830.000000  0       4237292.087       4866940.488      -2873852.605
10 0 59592  82860.000000  0       4331542.525       4899932.221      -2668897.986
10 0 59592  82890.000000  0       4421535.965       4927555.237      -2461218.837
10 0 59592  82920.000000  0       4507156.221       4949798.779      -2251026.351
10 0 59592  82950.000000  0       4588291.487       4966658.073      -2038534.449
10 0 59592  82980.000000  0       4664834.481       4978134.314      -1823959.556
10 0 59592  83010.000000  0       4736682.602       4984234.657      -1607520.376
10 0 59592  83040.000000  0       4803738.056       4984972.194      -1389437.665
10 0 59592  83070.000000  0       4865907.999       4980365.925      -1169933.996
10 0 59592  83100.000000  0       4923104.659       4970440.724       -949233.536
10 0 59592  83130.000000  0       4975245.457       4955227.297       -727561.801
10 0 59592  83160.000000  0       5022253.127       4934762.135       -505145.426
10 0 59592  83190.000000  0       5064055.823       4909087.456       -282211.924
10 0 59592  83220.000000  0       5100587.226       4878251.144        -58989.448
10 0 59592  83250.000000  0       5131786.637       4842306.681        164293.451
10 0 59592  83280.000000  0       5157599.074       4801313.075        387408.061
10 0 59592  83310.000000  0       5177975.356       4755334.773        610125.756
10 0 59592  83340.000000  0       5192872.183       4704441.581        832218.234
10 0 59592  83370.000000  0       5202252.213       4648708.560       1053457.767
10 0 59592  83400.000000  0       5206084.121       4588215.932       1273617.433
10 0 59592  83430.000000  0       5204342.665       4523048.969       1492471.370
10 0 59592  83460.000000  0       5197008.733       4453297.881       1709795.012
10 0 59592  83490.000000  0       5184069.391       4379057.694       1925365.335
10 0 59592  83520.000000  0       5165517.909       4300428.123       2138961.095
10 0 59592  83550.000000  0       5141353.793       4217513.439       2350363.064
10 0 59592  83580.000000  0       5111582.803       4130422.335       2559354.262
10 0 59592  83610.000000  0       5076216.961       4039267.783       2765720.190
10 0 59592  83640.000000  0       5035274.561       3944166.887       2969249.054
10 0 59592  83670.000000  0       4988780.162       3845240.732       3169731.994
10 0 59592  83700.000000  0       4936764.576       3742614.232       3366963.303
10 0 59592  83730.000000  0       4879264.855       3636415.965       3560740.644
10 0 59592  83760.000000  0       4816324.255       3526778.013       3750865.264
10 0 59592  83790.000000  0       4747992.212       3413835.795       3937142.203
10 0 59592  83820.000000  0       4674324.292       3297727.892       4119380.492
10 0 59592  83850.000000  0       4595382.155       3178595.874       4297393.352
10 0 59592  83880.000000  0       4511233.497       3056584.130       4470998.387
10 0 59592  83910.000000  0       4421951.996       2931839.689       4640017.775
10 0 59592  83940.000000  0       4327617.241       2804512.042       4804278.466
10 0 59592  83970.000000  0       4228314.640       2674752.951       4963612.357
10 0 59592  84000.000000  0       4124135.341       2542716.265       5117856.463
10 0 59592  84030.000000  0       4015176.134       2408557.734       5266853.076
10 0 59592  84060.000000  0       3901539.364       2272434.827       5410449.922
10 0 59592  84090.000000  0       3783332.824       2134506.538       5548500.323
10 0 59592  84120.000000  0       3660669.653       1994933.200       5680863.342
10 0 59592  84150.000000  0       3533668.211       1853876.289       5807403.923
10 0 59592  84180.000000  0       3402451.967       1711498.239       5927993.026
10 0 59592  84210.000000  0       3267149.366       1567962.243       6042507.751
10 0 59592  84240.000000  0       3127893.703       1423432.070       6150831.461
10 0 59592  84270.000000  0       2984822.977       1278071.870       6252853.895
10 0 59592  84300.000000  0       2838079.757       1132045.989       6348471.271
10 0 59592  84330.000000  0       2687811.033        985518.783       6437586.385
10 0 59592  84360.000000  0       2534168.062        838654.432       6520108.712
10 0 59592  84390.000000  0       2377306.214        691616.757       6595954.490
10 0 59592  84420.000000  0       2217384.811        544569.034       6665046.801
10 0 59592  84450.000000  0       2054566.960        397673.816       6727315.653
10 0 59592  84480.000000  0       1889019.382        251092.747       6782698.038
10 0 59592  84510.000000  0       1720912.240        104986.389       6831138.002
10 0 59592  84540.000000  0       1550418.957        -40485.961       6872586.696
10 0 59592  84570.000000  0       1377716.033       -185166.445       6907002.419
10 0 59592  84600.000000  0       1202982.860       -328898.819       6934350.661
10 0 59592  84630.000000  0       1026401.527       -471528.623       6954604.123
10 0 59592  84660.000000  0        848156.635       -612903.344       6967742.744
10 0 59592  84690.000000  0        668435.101       -752872.581       6973753.720
10 0 59592  84720.000000  0        487425.958       -891288.204       6972631.518
10 0 59592  84750.000000  0        305320.152      -1028004.514       6964377.871
10 0 59592  84780.000000  0        122310.339      -1162878.397       6949001.781
10 0 59592  84810.000000  0        -61409.316      -1295769.473       6926519.501
10 0 59592  84840.000000  0       -245643.351      -1426540.246       6896954.517
10 0 59592  84870.000000  0       -430195.215      -1555056.243       6860337.525
10 0 59592  84900.000000  0       -614867.483      -1681186.157       6816706.394
10 0 59592  84930.000000  0       -799462.060      -1804801.978       6766106.125
10 0 59592  84960.000000  0       -983780.400      -1925779.126       6708588.804
10 0 59592  84990.000000  0      -1167623.712      -2043996.569       6644213.547
10 0 59592  85020.000000  0      -1350793.178      -2159336.951       6573046.441
10 0 59592  85050.000000  0      -1533090.162      -2271686.703       6495160.485
10 0 59592  85080.000000  0      -1714316.429      -2380936.157       6410635.517
10 0 59592  85110.000000  0      -1894274.361      -2486979.654       6319558.135
10 0 59592  85140.000000  0      -2072767.176      -2589715.651       6222021.614
10 0 59592  85170.000000  0      -2249599.138      -2689046.818       6118125.820
10 0 59592  85200.000000  0      -2424575.788      -2784880.138       6007977.110
10 0 59592  85230.000000  0      -2597504.154      -2877126.994       5891688.223
10 0 59592  85260.000000  0      -2768192.974      -2965703.254       5769378.170
10 0 59592  85290.000000  0      -2936452.913      -3050529.348       5641172.110
10 0 59592  85320.000000  0      -3102096.777      -3131530.342       5507201.224
10 0 59592  85350.000000  0      -3264939.720      -3208636.001       5367602.576
10 0 59592  85380.000000  0      -3424799.457      -3281780.856       5222518.978
10 0 59592  85410.000000  0      -3581496.468      -3350904.256       5072098.846
10 0 59592  85440.000000  0      -3734854.206      -3415950.416       4916496.043
10 0 59592  85470.000000  0      -3884699.296      -3476868.467       4755869.728
10 0 59592  85500.000000  0      -4030861.736      -3533612.490       4590384.193
10 0 59592  85530.000000  0      -4173175.094      -3586141.551       4420208.694
10 0 59592  85560.000000  0      -4311476.700      -3634419.727       4245517.279
10 0 59592  85590.000000  0      -4445607.834      -3678416.127       4066488.609
10 0 59592  85620.000000  0      -4575413.911      -3718104.904       3883305.775
10 0 59592  85650.000000  0      -4700744.666      -3753465.269       3696156.112
10 0 59592  85680.000000  0      -4821454.325      -3784481.492       3505231.012
10 0 59592  85710.000000  0      -4937401.787      -3811142.898       3310725.721
10 0 59592  85740.000000  0      -5048450.788      -3833443.864       3112839.138
10 0 59592  85770.000000  0      -5154470.068      -3851383.804       2911773.613
10 0 59592  85800.000000  0      -5255333.527      -3864967.145       2707734.731
10 0 59592  85830.000000  0      -5350920.381      -3874203.303       2500931.096
10 0 59592  85860.000000  0      -5441115.302      -3879106.649       2291574.116
10 0 59592  85890.000000  0      -5525808.564      -3879696.472       2079877.781
10 0 59592  85920.000000  0      -5604896.171      -3875996.930       1866058.440
10 0 59592  85950.000000  0      -5678279.990      -3868037.000       1650334.573
10 0 59592  85980.000000  0      -5745867.867      -3855850.425       1432926.566
10 0 59592  86010.000000  0      -5807573.748      -3839475.648       1214056.476
10 0 59592  86040.000000  0      -5863317.780      -3818955.745        993947.803
10 0 59592  86070.000000  0      -5913026.416      -3794338.352        772825.252
10 0 59592  86100.000000  0      -5956632.505      -3765675.589        550914.502
10 0 59592  86130.000000  0      -5994075.378      -3733023.972        328441.968
10 0 59592  86160.000000  0      -6025300.930      -3696444.330        105634.563
10 0 59592  86190.000000  0      -6050261.688      -3656001.710       -117280.538
10 0 59592  86220.000000  0      -6068916.875      -3611765.276       -340076.138
10 0 59592  86250.000000  0      -6081232.466      -3563808.207       -562525.256
10 0 59592  86280.000000  0      -6087181.234      -3512207.589       -784401.366
10 0 59592  86310.000000  0      -6086742.785      -3457044.301      -1005478.632
10 0 59592  86340.000000  0      -6079903.591      -3398402.895      -1225532.145
10 0 59592  86370.000000  0      -6066657.007      -3336371.480      -1444338.150
99
